{
  "norad_id": 65062,
  "name": "STARLINK-34708",
  "history": [
    {
      "epoch": "2026-03-28T18:55:28.145280Z",
      "apogee_km": 549.7462764374568,
      "perigee_km": 549.2201929568346,
      "latitude_deg": -5.602939737445363e-05,
      "longitude_deg": 55.975998580092856,
      "height_km": 552.755367039694,
      "semi_major_axis_km": 6927.620234697146,
      "eccentricity": 3.797e-05,
      "inclination_deg": 97.602,
      "raan_deg": 166.0472,
      "arg_perigee_deg": 141.985,
      "mean_anomaly_deg": 218.1403,
      "mean_motion_rev_day": 15.05659102
    },
    {
      "epoch": "2026-03-29T04:29:40.011360Z",
      "apogee_km": 549.8658447185162,
      "perigee_km": 549.0497740499713,
      "latitude_deg": 1.9743141286335858e-07,
      "longitude_deg": -87.57367527702327,
      "height_km": 552.680065786277,
      "semi_major_axis_km": 6927.5948093842435,
      "eccentricity": 5.89e-05,
      "inclination_deg": 97.6019,
      "raan_deg": 166.44,
      "arg_perigee_deg": 112.7574,
      "mean_anomaly_deg": 247.3715,
      "mean_motion_rev_day": 15.05667391
    },
    {
      "epoch": "2026-03-29T06:05:22.001568Z",
      "apogee_km": 549.7764904655987,
      "perigee_km": 549.1790529676864,
      "latitude_deg": -4.784538436515922e-07,
      "longitude_deg": -111.49823856423778,
      "height_km": 552.757933790964,
      "semi_major_axis_km": 6927.614771716642,
      "eccentricity": 4.312e-05,
      "inclination_deg": 97.6025,
      "raan_deg": 166.5059,
      "arg_perigee_deg": 136.1391,
      "mean_anomaly_deg": 223.987,
      "mean_motion_rev_day": 15.05660883
    },
    {
      "epoch": "2026-03-30T10:47:57.836544Z",
      "apogee_km": 550.072271224366,
      "perigee_km": 548.8811373240533,
      "latitude_deg": -7.120393169964299e-05,
      "longitude_deg": 177.85258340353235,
      "height_km": 552.7837269603816,
      "semi_major_axis_km": 6927.613704274209,
      "eccentricity": 8.597e-05,
      "inclination_deg": 97.6033,
      "raan_deg": 167.6851,
      "arg_perigee_deg": 114.081,
      "mean_anomaly_deg": 246.0506,
      "mean_motion_rev_day": 15.05661231
    },
    {
      "epoch": "2026-03-30T18:46:27.753888Z",
      "apogee_km": 550.038691825891,
      "perigee_km": 548.9324890506505,
      "latitude_deg": -5.92973122651452e-07,
      "longitude_deg": 58.226598144416286,
      "height_km": 552.7743801057177,
      "semi_major_axis_km": 6927.622590438271,
      "eccentricity": 7.984e-05,
      "inclination_deg": 97.6014,
      "raan_deg": 168.0113,
      "arg_perigee_deg": 246.281,
      "mean_anomaly_deg": 113.8333,
      "mean_motion_rev_day": 15.05658334
    },
    {
      "epoch": "2026-03-31T10:43:28.233984Z",
      "apogee_km": 549.6945157662403,
      "perigee_km": 549.3323382019189,
      "latitude_deg": -1.1663147778476547e-05,
      "longitude_deg": 178.97545139186406,
      "height_km": 552.7214109821349,
      "semi_major_axis_km": 6927.65042698408,
      "eccentricity": 2.614e-05,
      "inclination_deg": 97.6022,
      "raan_deg": 168.6672,
      "arg_perigee_deg": 142.1633,
      "mean_anomaly_deg": 217.9612,
      "mean_motion_rev_day": 15.05649259
    },
    {
      "epoch": "2026-04-01T04:16:10.384608Z",
      "apogee_km": 549.8010212586214,
      "perigee_km": 549.2358631276484,
      "latitude_deg": 1.0184937469474532e-05,
      "longitude_deg": -84.20102737691153,
      "height_km": 552.8580123810758,
      "semi_major_axis_km": 6927.655442193135,
      "eccentricity": 4.079e-05,
      "inclination_deg": 97.6015,
      "raan_deg": 169.3869,
      "arg_perigee_deg": 166.236,
      "mean_anomaly_deg": 193.8878,
      "mean_motion_rev_day": 15.05647624
    },
    {
      "epoch": "2026-04-02T07:23:03.821568Z",
      "apogee_km": 549.622042993301,
      "perigee_km": 549.2827296651594,
      "latitude_deg": 7.049995608358064e-05,
      "longitude_deg": -130.92285521233325,
      "height_km": 552.6865456747116,
      "semi_major_axis_km": 6927.58938632923,
      "eccentricity": 2.449e-05,
      "inclination_deg": 97.6022,
      "raan_deg": 170.5013,
      "arg_perigee_deg": 174.8204,
      "mean_anomaly_deg": 185.3026,
      "mean_motion_rev_day": 15.05669159
    },
    {
      "epoch": "2026-04-03T18:28:28.371648Z",
      "apogee_km": 549.9360924205812,
      "perigee_km": 549.1879009289405,
      "latitude_deg": -1.416667478842344e-05,
      "longitude_deg": 62.72616308338665,
      "height_km": 552.3012785554797,
      "semi_major_axis_km": 6927.698996674761,
      "eccentricity": 5.4e-05,
      "inclination_deg": 97.6022,
      "raan_deg": 171.9437,
      "arg_perigee_deg": 29.5604,
      "mean_anomaly_deg": 330.5653,
      "mean_motion_rev_day": 15.05633425
    },
    {
      "epoch": "2026-04-04T18:23:58.894368Z",
      "apogee_km": 549.6093360600835,
      "perigee_km": 549.429216996893,
      "latitude_deg": -2.9590645385473105e-07,
      "longitude_deg": 63.84811169702297,
      "height_km": 552.657587238771,
      "semi_major_axis_km": 6927.656276528488,
      "eccentricity": 1.3e-05,
      "inclination_deg": 97.6024,
      "raan_deg": 172.9254,
      "arg_perigee_deg": 215.8292,
      "mean_anomaly_deg": 144.2926,
      "mean_motion_rev_day": 15.05647352
    },
    {
      "epoch": "2026-04-05T11:56:40.236288Z",
      "apogee_km": 549.5001515583881,
      "perigee_km": 549.3783647677692,
      "latitude_deg": 7.076050144508185e-05,
      "longitude_deg": 160.67540311292166,
      "height_km": 552.4582708243772,
      "semi_major_axis_km": 6927.576258163078,
      "eccentricity": 8.79e-06,
      "inclination_deg": 97.6022,
      "raan_deg": 173.6455,
      "arg_perigee_deg": 40.8096,
      "mean_anomaly_deg": 319.3138,
      "mean_motion_rev_day": 15.05673439
    },
    {
      "epoch": "2026-04-05T18:19:27.770304Z",
      "apogee_km": 549.5128831092161,
      "perigee_km": 549.3092131966005,
      "latitude_deg": 5.737898813669057e-05,
      "longitude_deg": 64.97723403930736,
      "height_km": 552.4137978897475,
      "semi_major_axis_km": 6927.548048152908,
      "eccentricity": 1.47e-05,
      "inclination_deg": 97.6022,
      "raan_deg": 173.9074,
      "arg_perigee_deg": 307.9453,
      "mean_anomaly_deg": 52.1761,
      "mean_motion_rev_day": 15.05682636
    },
    {
      "epoch": "2026-04-06T03:53:39.040224Z",
      "apogee_km": 549.8344170620176,
      "perigee_km": 548.9776185415758,
      "latitude_deg": 2.075097668971113e-05,
      "longitude_deg": -78.56853753078978,
      "height_km": 552.1451088911593,
      "semi_major_axis_km": 6927.543017801796,
      "eccentricity": 6.184e-05,
      "inclination_deg": 97.6024,
      "raan_deg": 174.3016,
      "arg_perigee_deg": 319.6806,
      "mean_anomaly_deg": 40.4375,
      "mean_motion_rev_day": 15.05684276
    }
  ]
}